MERIDIAN 10             
1 52145U 22030A   25132.18752218  .00000260  00000+0  00000+0 0  9997
2 52145  62.6560 183.0050 6748415 273.4486  17.7572  2.00602502 22987
OMNI-L1                 
1 52157U 22033A   25132.23268333  .00001199  00000+0  16313-3 0  9999
2 52157  97.8689 214.0969 0006551 141.1829 218.9855 14.80540253168086
ENMAP                   
1 52159U 22033C   25132.57523686  .00000597  00000+0  96316-4 0  9996
2 52159  97.9785 215.5740 0001452  91.3783 268.7592 14.74933392167600
ARCSAT-1                
1 52161U 22033E   25132.20573508  .00009666  00000+0  22039-3 0  9993
2 52161  97.2934 216.5207 0005555 199.0356 161.0685 15.43107095173673
BRO-7                   
1 52174U 22033T   25132.84061970  .00290760  00000+0  12508-2 0  9998
2 52174  97.2947 229.8817 0006399 218.8791 141.2019 15.84260138174603
GLOBAL-18               
1 52196U 22034B   25132.05408535  .00017331  00000+0  45647-3 0  9990
2 52196  52.9864 356.9875 0001387 170.6605 189.4423 15.38645523175136
GAOFEN-3 03             
1 52200U 22035A   25132.84921306  .00000050  00000+0  28329-4 0  9999
2 52200  98.4102 142.1531 0001070  71.9235 288.2071 14.42220596163156
DAQI 1                  
1 52257U 22039A   25132.82377307  .00000400  00000+0  97607-4 0  9993
2 52257  98.2445  72.6905 0004513  65.0622 295.1045 14.57737742163618
JILIN-1 GAOFEN 4A       
1 52388U 22046A   25132.85318849  .00036572  00000+0  71685-3 0  9991
2 52388  97.4846 229.7006 0005399  13.4092 346.7300 15.47270329168229
JILIN-1 GAOFEN 3D05     
1 52390U 22046C   25132.88891034  .00024905  00000+0  63720-3 0  9997
2 52390  97.4839 229.6092 0001594 142.7377 217.3979 15.39413830168269
JILIN-1 GAOFEN 3D07     
1 52392U 22046E   25132.85933636  .00030817  00000+0  65015-3 0  9999
2 52392  97.4930 232.3145 0002369 147.5989 212.5405 15.45165953168376
BRO-6                   
1 52422U 22047AE  25132.84239832  .00011937  00000+0  35031-3 0  9997
2 52422  97.3648 216.1355 0006910  82.6952 277.5076 15.35287515169489
JILIN-1 GAOFEN 3D27     
1 52444U 22048B   25132.87447050  .00019887  00000+0  58820-3 0  9991
2 52444  97.5718 222.1601 0009869  62.5603 297.6642 15.34905012167499
JILIN-1 GAOFEN 3D28     
1 52445U 22048C   25132.88083771  .00020089  00000+0  58514-3 0  9995
2 52445  97.5683 221.9120 0008840  78.5368 281.6867 15.35395325167502
CONNECTA T1.1           
1 52739U 22057H   25132.84087011  .00035172  00000+0  59941-3 0  9992
2 52739  97.6075 270.9178 0004915  83.9500 276.2312 15.51283959164822
VIGORIDE-3              
1 52760U 22057AE  25132.81695798  .00003699  00000+0  16201-3 0  9991
2 52760  97.6093 260.1936 0011260  86.2632 273.9892 15.22620353164156
ION SCV-006             
1 52761U 22057AF  25132.84412312  .00010454  00000+0  30936-3 0  9992
2 52761  97.5609 262.0741 0023718 110.6516 249.7273 15.34809349164508
SHERPA-AC1              
1 52763U 22057AH  25132.62080451  .00007216  00000+0  25813-3 0  9995
2 52763  97.6154 263.9307 0010202  75.3971 284.8399 15.29066333164354
PLATFORM-1              
1 52770U 22057AQ  25132.34951812  .00095224  00000+0  11696-2 0  9999
2 52770  97.6036 274.4400 0001503  60.7108 299.4298 15.59974316165056
OMNI-L2                 
1 52771U 22057AR  25132.75241433  .00002035  00000+0  27734-3 0  9995
2 52771  97.5106 216.3902 0006906 184.3050 175.8105 14.79663935161588
STEP CUBE LAB-II        
1 52897U 22065D   25132.84640733  .00001138  00000+0  23472-3 0  9997
2 52897  98.1670 274.6443 0008530 190.9999 169.1017 14.62305349152972
RANDEV                  
1 52898U 22065E   25132.87493699  .00001162  00000+0  23780-3 0  9997
2 52898  98.1659 274.8630 0007833 191.4036 168.6989 14.62620492152716
SNUGLITE-II             
1 52899U 22065F   25132.86254118  .00001273  00000+0  25680-3 0  9992
2 52899  98.1648 275.1132 0007418 190.6905 169.4140 14.63144410152430
MIMAN                   
1 52900U 22065G   25132.32831348  .00000866  00000+0  18557-3 0  9994
2 52900  98.1690 273.4271 0007448 189.9830 170.1224 14.61121878151898
STARLINK-4362           
1 53043U 22077A   25132.50740396  .00000694  00000+0  58642-4 0  9997
2 53043  97.6550 314.6394 0003583  77.8130 282.3495 15.01261614155027
LARES-2                 
1 53105U 22080A   25130.44919850 -.00000007  00000+0  00000+0 0  9993
2 53105  70.1443  83.4414 0004960  62.9631 297.1319  6.38965190 65937
ROBUSTA-1F (MTCUBE 2)   
1 53109U 22080E   25132.26499284 -.00000003  00000+0  00000+0 0  9999
2 53109  70.1337  77.6653 0008666  13.8893 346.2004  6.42584224 66304
STARLINK-4410           
1 53204U 22084R   25132.89398650  .00000029  00000+0  68687-5 0  9991
2 53204  97.6538 195.0128 0002165  91.4617 268.6855 15.01256314154561
COSMOS 2558             
1 53323U 22089A   25132.76259954  .00019187  00000+0  53957-3 0  9994
2 53323  97.2346 230.0063 0004719  74.8523 285.3243 15.36527385155770
TECMS                   
1 53346U 22090A   25132.88188928  .00005019  00000+0  22816-3 0  9995
2 53346  97.3582 206.1946 0004661  98.2503 261.9262 15.21180803153959
DONGPO 04               
1 53451U 22098H   25132.81383692  .00024586  00000+0  60502-3 0  9992
2 53451  97.5407 243.5152 0003701  52.5532 307.6050 15.40599750152865
DONGPO 02               
1 53452U 22098J   25132.88866556  .00019131  00000+0  55177-3 0  9997
2 53452  97.5264 240.7061 0003333 355.3165   4.8046 15.35747086152785
DONGPO 01               
1 53453U 22098K   25132.81377758  .00019422  00000+0  56669-3 0  9992
2 53453  97.5337 241.2379 0001341  82.7119 277.4276 15.35384669152767
STARLINK-4400           
1 53468U 22099D   25132.32143623  .00100436  00000+0  75599-2 0  9995
2 53468  97.6546 254.4569 0002798 339.0146  21.0964 15.02025196150764
STARLINK-4621           
1 53676U 22105AE  25132.39847809 -.00000401  00000+0 -26627-4 0  9991
2 53676  97.6547  14.5137 0004568  61.2439 298.9243 15.01271511148033
SHERPA-LTC2             
1 53754U 22107BG  25132.31117078  .00003856  00000+0  21360-3 0  9993
2 53754  53.2339 110.5199 0414384 189.1894 170.1326 14.64565396143705
CENTISPACE-1 S3         
1 53757U 22108A   25132.83962465  .00000628  00000+0  16665-3 0  9998
2 53757  53.5329 269.8418 0009492   9.1774 350.9373 14.60573072143010
CENTISPACE-1 S4         
1 53758U 22108B   25132.85260445  .00000844  00000+0  20858-3 0  9999
2 53758  53.5304 268.9994 0008592 355.6774   4.4125 14.61098615143025
BLUEWALKER-3            
1 53807U 22111AL  25132.23109332  .00006995  00000+0  22982-3 0  9990
2 53807  53.2304 108.3687 0008507  29.9262 330.2226 15.32680605148608
YUNHAI-1 03             
1 53877U 22115A   25132.86787858  .00000380  00000+0  15368-3 0  9997
2 53877  98.5377 131.5198 0001869 134.3196 225.8142 14.33358307138193
CENTISPACE-1 S5         
1 54020U 22126A   25132.83177146  .00001138  00000+0  26284-3 0  9991
2 54020  55.0006  13.6327 0010112 243.8910 116.1044 14.61886070138463
CENTISPACE-1 S6         
1 54021U 22126B   25132.86778835  .00000944  00000+0  22660-3 0  9995
2 54021  55.0009  13.8335 0011911 246.3881 113.5862 14.61425166138454
OTB-3-GAZELLE           
1 54023U 22127A   25132.85204478  .00000195  00000+0  71712-4 0  9995
2 54023  98.3669 126.3854 0012341 321.3779  38.6527 14.42494906136643
ASO-S                   
1 54029U 22129A   25132.86818667  .00000254  00000+0  74060-4 0  9990
2 54029  98.2722 138.8219 0013047 240.5651 119.4243 14.51841815137331
HJ-2E                   
1 54035U 22132A   25132.83912146  .00009741  00000+0  43558-3 0  9992
2 54035  97.3802 139.7431 0005947 346.3695  13.7379 15.21499520143531
COSMOS 2561             
1 54109U 22137A   25132.75886782  .00010203  00000+0  24920-3 0  9993
2 54109  96.9732 203.4031 0013305  61.3387 298.9197 15.40922856144488
GONETS-M 23             
1 54150U 22139A   25132.78489394  .00000022  00000+0  86201-4 0  9991
2 54150  82.5068 237.0745 0020987  18.7535 341.4314 12.42890114115907
GONETS-M 24             
1 54151U 22139B   25132.83881199  .00000032  00000+0  16248-3 0  9991
2 54151  82.4986 236.3749 0016296  30.4481 329.7541 12.42893047115911
GONETS-M 25             
1 54152U 22139C   25132.82525975  .00000032  00000+0  16097-3 0  9990
2 54152  82.5051 236.8556 0020027  27.8908 332.3241 12.42888034115915
SKIF-D                  
1 54153U 22139D   25132.54021158  .00000013  00000+0  00000+0 0  9996
2 54153  89.9744  96.7666 0007687 308.9548  51.0068  5.00429418 44063
MATS                    
1 54227U 22147A   25132.57475542  .00003273  00000+0  25392-3 0  9996
2 54227  97.6716 132.2414 0017112 110.1518 250.1549 15.01953054137565
JILIN-1 GAOFEN 03D54    
1 54254U 22155D   25132.86892134  .00022773  00000+0  59248-3 0  9990
2 54254  97.5831 254.6708 0006593  19.7897 340.3603 15.38899463138008
EOS-6 (OCEANSAT-3)      
1 54361U 22158A   25132.85868410  .00000384  00000+0  11757-3 0  9998
2 54361  98.3505 231.4321 0002275 101.9931 258.1516 14.47013388129949
ASTROCAST-0304          
1 54367U 22158G   25132.85414228  .00075693  00000+0  77024-3 0  9992
2 54367  97.4351 249.8841 0006040 287.8035  72.2565 15.64890007137665
ASTROCAST-0302          
1 54369U 22158J   25132.82781258  .00052686  00000+0  63893-3 0  9997
2 54369  97.4435 249.9850 0002299 287.7308  72.3697 15.60471320137650
ASTROCAST-0301          
1 54370U 22158K   25132.82116603  .00034389  00000+0  44358-3 0  9990
2 54370  97.4512 250.2682 0002726 344.0328  16.0841 15.58927196137650
DONGPO 09               
1 54685U 22167D   25132.87165343  .00009978  00000+0  39738-3 0  9991
2 54685  97.6535 285.4416 0004668  98.7884 261.3882 15.25436560134211
DONGPO 08               
1 54686U 22167E   25132.87580008  .00009676  00000+0  40543-3 0  9992
2 54686  97.6479 284.2304 0011387 132.3289 227.8914 15.23687858134176
2022-167F               
1 54687U 22167F   25132.84958661  .00021831  00000+0  51781-3 0  9997
2 54687  97.6148 287.5809 0005252  73.2957 286.8866 15.41734664134488
